EARTHCARE               
1 59908U 24101A   24204.36757268  .00021473  00000+0  31866-3 0  9998
2 59908  96.9842 331.2836 0003034 353.7065   6.4152 15.55223839  8454
